ATLAS CENTAUR R/B       
1 06155U 72065B   26036.32815944  .00001934  00000+0  26719-3 0  9994
2 06155  35.0008 135.3876 0033089  97.8072 262.6387 14.77591280836470
SL-8 R/B                
1 08459U 75112B   26036.08823251  .00000251  00000+0  91036-4 0  9998
2 08459  74.0594  78.8887 0015597 183.1258 176.9802 14.38187274627180
SL-3 R/B                
1 10114U 77057B   26036.27080880  .00018174  00000+0  39263-3 0  9999
2 10114  97.5728 206.7983 0008206  46.2535 313.9391 15.44543745663324
SEASAT 1                
1 10967U 78064A   26035.98487290  .00000419  00000+0  15572-3 0  9997
2 10967 108.0164  56.8637 0001485 291.5369  68.5618 14.46132644501783
SL-14 R/B               
1 11267U 79011B   26036.18522161  .00000865  00000+0  82968-4 0  9993
2 11267  82.5258 127.4110 0016521 161.1940 198.9893 14.91866859523938
SL-8 R/B                
1 11574U 79089B   26036.00765422  .00000382  00000+0  12349-3 0  9998
2 11574  74.0696 151.5384 0016394 328.5223  31.4951 14.42329472431398
SL-14 R/B               
1 11672U 80005B   26036.24401347  .00001001  00000+0  98936-4 0  9992
2 11672  82.5173 338.0033 0014121 272.4091  87.5511 14.90885923471658
SL-8 R/B                
1 12139U 81003B   26036.20557441  .00029627  00000+0  78631-3 0  9996
2 12139  82.9395 320.0325 0263949 292.1657  65.1755 15.09775266309777
SL-3 R/B                
1 12465U 81046B   26036.26393492  .00018175  00000+0  43529-3 0  9999
2 12465  81.2349 328.6446 0020551 128.3050 232.0045 15.41078226433431
SL-3 R/B                
1 12904U 81103B   26036.27732221  .00008211  00000+0  36843-3 0  9990
2 12904  81.1557 251.4502 0014004  38.0622 322.1595 15.20979954968308
SL-3 R/B                
1 13068U 82013B   26036.23360018  .00006655  00000+0  29153-3 0  9996
2 13068  81.1741 198.7954 0021854 290.0864  69.8016 15.21652616399415
SL-3 R/B                
1 13154U 82039B   26036.25272013  .00003536  00000+0  21455-3 0  9991
2 13154  81.1616 253.3487 0030095  70.5656 289.8818 15.09900596376742
