CCSDS_OMM_VERS = 2.0
CREATION_DATE  = 
ORIGINATOR     = 

OBJECT_NAME    = ATLAS CENTAUR R/B
OBJECT_ID      = 1972-065B
CENTER_NAME    = EARTH
REF_FRAME      = TEME
TIME_SYSTEM    = UTC
MEAN_ELEMENT_THEORY = SGP/SGP4

EPOCH          = 2026-02-05T07:52:32.975616
MEAN_MOTION    = 14.77591280
ECCENTRICITY   = .0033089
INCLINATION    = 35.0008
RA_OF_ASC_NODE = 135.3876
ARG_OF_PERICENTER = 97.8072
MEAN_ANOMALY   = 262.6387

EPHEMERIS_TYPE = 0
CLASSIFICATION_TYPE = U
NORAD_CAT_ID   = 6155
ELEMENT_SET_NO = 999
REV_AT_EPOCH   = 83647
BSTAR          = .26718675E-3
MEAN_MOTION_DOT = .1934E-4
MEAN_MOTION_DDOT = 0

CCSDS_OMM_VERS = 2.0
CREATION_DATE  = 
ORIGINATOR     = 

OBJECT_NAME    = SL-8 R/B
OBJECT_ID      = 1975-112B
CENTER_NAME    = EARTH
REF_FRAME      = TEME
TIME_SYSTEM    = UTC
MEAN_ELEMENT_THEORY = SGP/SGP4

EPOCH          = 2026-02-05T02:07:03.288864
MEAN_MOTION    = 14.38187274
ECCENTRICITY   = .00155974
INCLINATION    = 74.0594
RA_OF_ASC_NODE = 78.8887
ARG_OF_PERICENTER = 183.1258
MEAN_ANOMALY   = 176.9802

EPHEMERIS_TYPE = 0
CLASSIFICATION_TYPE = U
NORAD_CAT_ID   = 8459
ELEMENT_SET_NO = 999
REV_AT_EPOCH   = 62718
BSTAR          = .91036288E-4
MEAN_MOTION_DOT = .251E-5
MEAN_MOTION_DDOT = 0

CCSDS_OMM_VERS = 2.0
CREATION_DATE  = 
ORIGINATOR     = 

OBJECT_NAME    = SL-3 R/B
OBJECT_ID      = 1977-057B
CENTER_NAME    = EARTH
REF_FRAME      = TEME
TIME_SYSTEM    = UTC
MEAN_ELEMENT_THEORY = SGP/SGP4

EPOCH          = 2026-02-05T06:29:57.880320
MEAN_MOTION    = 15.44543745
ECCENTRICITY   = .00082061
INCLINATION    = 97.5728
RA_OF_ASC_NODE = 206.7983
ARG_OF_PERICENTER = 46.2535
MEAN_ANOMALY   = 313.9391

EPHEMERIS_TYPE = 0
CLASSIFICATION_TYPE = U
NORAD_CAT_ID   = 10114
ELEMENT_SET_NO = 999
REV_AT_EPOCH   = 66332
BSTAR          = .39262912E-3
MEAN_MOTION_DOT = .18174E-3
MEAN_MOTION_DDOT = 0

CCSDS_OMM_VERS = 2.0
CREATION_DATE  = 
ORIGINATOR     = 

OBJECT_NAME    = SEASAT 1
OBJECT_ID      = 1978-064A
CENTER_NAME    = EARTH
REF_FRAME      = TEME
TIME_SYSTEM    = UTC
MEAN_ELEMENT_THEORY = SGP/SGP4

EPOCH          = 2026-02-04T23:38:13.018560
MEAN_MOTION    = 14.46132644
ECCENTRICITY   = .00014853
INCLINATION    = 108.0164
RA_OF_ASC_NODE = 56.8637
ARG_OF_PERICENTER = 291.5369
MEAN_ANOMALY   = 68.5618

EPHEMERIS_TYPE = 0
CLASSIFICATION_TYPE = U
NORAD_CAT_ID   = 10967
ELEMENT_SET_NO = 999
REV_AT_EPOCH   = 50178
BSTAR          = .15571605E-3
MEAN_MOTION_DOT = .419E-5
MEAN_MOTION_DDOT = 0

CCSDS_OMM_VERS = 2.0
CREATION_DATE  = 
ORIGINATOR     = 

OBJECT_NAME    = SL-14 R/B
OBJECT_ID      = 1979-011B
CENTER_NAME    = EARTH
REF_FRAME      = TEME
TIME_SYSTEM    = UTC
MEAN_ELEMENT_THEORY = SGP/SGP4

EPOCH          = 2026-02-05T04:26:43.147104
MEAN_MOTION    = 14.91866859
ECCENTRICITY   = .00165212
INCLINATION    = 82.5258
RA_OF_ASC_NODE = 127.4110
ARG_OF_PERICENTER = 161.1940
MEAN_ANOMALY   = 198.9893

EPHEMERIS_TYPE = 0
CLASSIFICATION_TYPE = U
NORAD_CAT_ID   = 11267
ELEMENT_SET_NO = 999
REV_AT_EPOCH   = 52393
BSTAR          = .82967555E-4
MEAN_MOTION_DOT = .865E-5
MEAN_MOTION_DDOT = 0

CCSDS_OMM_VERS = 2.0
CREATION_DATE  = 
ORIGINATOR     = 

OBJECT_NAME    = SL-8 R/B
OBJECT_ID      = 1979-089B
CENTER_NAME    = EARTH
REF_FRAME      = TEME
TIME_SYSTEM    = UTC
MEAN_ELEMENT_THEORY = SGP/SGP4

EPOCH          = 2026-02-05T00:11:01.324608
MEAN_MOTION    = 14.42329472
ECCENTRICITY   = .0016394
INCLINATION    = 74.0696
RA_OF_ASC_NODE = 151.5384
ARG_OF_PERICENTER = 328.5223
MEAN_ANOMALY   = 31.4951

EPHEMERIS_TYPE = 0
CLASSIFICATION_TYPE = U
NORAD_CAT_ID   = 11574
ELEMENT_SET_NO = 999
REV_AT_EPOCH   = 43139
BSTAR          = .1234943E-3
MEAN_MOTION_DOT = .382E-5
MEAN_MOTION_DDOT = 0

CCSDS_OMM_VERS = 2.0
CREATION_DATE  = 
ORIGINATOR     = 

OBJECT_NAME    = SL-14 R/B
OBJECT_ID      = 1980-005B
CENTER_NAME    = EARTH
REF_FRAME      = TEME
TIME_SYSTEM    = UTC
MEAN_ELEMENT_THEORY = SGP/SGP4

EPOCH          = 2026-02-05T05:51:22.763808
MEAN_MOTION    = 14.90885923
ECCENTRICITY   = .00141213
INCLINATION    = 82.5173
RA_OF_ASC_NODE = 338.0033
ARG_OF_PERICENTER = 272.4091
MEAN_ANOMALY   = 87.5511

EPHEMERIS_TYPE = 0
CLASSIFICATION_TYPE = U
NORAD_CAT_ID   = 11672
ELEMENT_SET_NO = 999
REV_AT_EPOCH   = 47165
BSTAR          = .98935719E-4
MEAN_MOTION_DOT = .1001E-4
MEAN_MOTION_DDOT = 0

CCSDS_OMM_VERS = 2.0
CREATION_DATE  = 
ORIGINATOR     = 

OBJECT_NAME    = SL-8 R/B
OBJECT_ID      = 1981-003B
CENTER_NAME    = EARTH
REF_FRAME      = TEME
TIME_SYSTEM    = UTC
MEAN_ELEMENT_THEORY = SGP/SGP4

EPOCH          = 2026-02-05T04:56:01.629024
MEAN_MOTION    = 15.09775266
ECCENTRICITY   = .02639494
INCLINATION    = 82.9395
RA_OF_ASC_NODE = 320.0325
ARG_OF_PERICENTER = 292.1657
MEAN_ANOMALY   = 65.1755

EPHEMERIS_TYPE = 0
CLASSIFICATION_TYPE = U
NORAD_CAT_ID   = 12139
ELEMENT_SET_NO = 999
REV_AT_EPOCH   = 30977
BSTAR          = .78631455E-3
MEAN_MOTION_DOT = .29627E-3
MEAN_MOTION_DDOT = 0

CCSDS_OMM_VERS = 2.0
CREATION_DATE  = 
ORIGINATOR     = 

OBJECT_NAME    = SL-3 R/B
OBJECT_ID      = 1981-046B
CENTER_NAME    = EARTH
REF_FRAME      = TEME
TIME_SYSTEM    = UTC
MEAN_ELEMENT_THEORY = SGP/SGP4

EPOCH          = 2026-02-05T06:20:03.977088
MEAN_MOTION    = 15.41078226
ECCENTRICITY   = .0020551
INCLINATION    = 81.2349
RA_OF_ASC_NODE = 328.6446
ARG_OF_PERICENTER = 128.3050
MEAN_ANOMALY   = 232.0045

EPHEMERIS_TYPE = 0
CLASSIFICATION_TYPE = U
NORAD_CAT_ID   = 12465
ELEMENT_SET_NO = 999
REV_AT_EPOCH   = 43343
BSTAR          = .43528743E-3
MEAN_MOTION_DOT = .18175E-3
MEAN_MOTION_DDOT = 0

CCSDS_OMM_VERS = 2.0
CREATION_DATE  = 
ORIGINATOR     = 

OBJECT_NAME    = SL-3 R/B
OBJECT_ID      = 1981-103B
CENTER_NAME    = EARTH
REF_FRAME      = TEME
TIME_SYSTEM    = UTC
MEAN_ELEMENT_THEORY = SGP/SGP4

EPOCH          = 2026-02-05T06:39:20.638944
MEAN_MOTION    = 15.20979954
ECCENTRICITY   = .0014004
INCLINATION    = 81.1557
RA_OF_ASC_NODE = 251.4502
ARG_OF_PERICENTER = 38.0622
MEAN_ANOMALY   = 322.1595

EPHEMERIS_TYPE = 0
CLASSIFICATION_TYPE = U
NORAD_CAT_ID   = 12904
ELEMENT_SET_NO = 999
REV_AT_EPOCH   = 96830
BSTAR          = .36843413E-3
MEAN_MOTION_DOT = .8211E-4
MEAN_MOTION_DDOT = 0

CCSDS_OMM_VERS = 2.0
CREATION_DATE  = 
ORIGINATOR     = 

OBJECT_NAME    = SL-3 R/B
OBJECT_ID      = 1982-013B
CENTER_NAME    = EARTH
REF_FRAME      = TEME
TIME_SYSTEM    = UTC
MEAN_ELEMENT_THEORY = SGP/SGP4

EPOCH          = 2026-02-05T05:36:23.055552
MEAN_MOTION    = 15.21652616
ECCENTRICITY   = .00218541
INCLINATION    = 81.1741
RA_OF_ASC_NODE = 198.7954
ARG_OF_PERICENTER = 290.0864
MEAN_ANOMALY   = 69.8016

EPHEMERIS_TYPE = 0
CLASSIFICATION_TYPE = U
NORAD_CAT_ID   = 13068
ELEMENT_SET_NO = 999
REV_AT_EPOCH   = 39941
BSTAR          = .29152608E-3
MEAN_MOTION_DOT = .6655E-4
MEAN_MOTION_DDOT = 0

CCSDS_OMM_VERS = 2.0
CREATION_DATE  = 
ORIGINATOR     = 

OBJECT_NAME    = SL-3 R/B
OBJECT_ID      = 1982-039B
CENTER_NAME    = EARTH
REF_FRAME      = TEME
TIME_SYSTEM    = UTC
MEAN_ELEMENT_THEORY = SGP/SGP4

EPOCH          = 2026-02-05T06:03:55.019232
MEAN_MOTION    = 15.09900596
ECCENTRICITY   = .00300953
INCLINATION    = 81.1616
RA_OF_ASC_NODE = 253.3487
ARG_OF_PERICENTER = 70.5656
MEAN_ANOMALY   = 289.8818

EPHEMERIS_TYPE = 0
CLASSIFICATION_TYPE = U
NORAD_CAT_ID   = 13154
ELEMENT_SET_NO = 999
REV_AT_EPOCH   = 37674
BSTAR          = .21455023E-3
MEAN_MOTION_DOT = .3536E-4
MEAN_MOTION_DDOT = 0

